{"type": "FeatureCollection", "features": [ {"type": "Feature", "properties": {"norad_id": 32320, "name": "FENGYUN 1C DEB", "group": "fengyun-1c-debris", "lat": 40.523783951792424, "lon": 23.91261685174376, "alt_km": 754.471141891725, "timestamp": "2025-12-05T07:38:19.131632+00:00", "meta": {"OBJECT_NAME": "FENGYUN 1C DEB", "OBJECT_ID": "1999-025CXM", "EPOCH": "2025-12-01T19:23:39.723360", "MEAN_MOTION": 14.36057731, "ECCENTRICITY": 0.00558837, "INCLINATION": 100.3751, "RA_OF_ASC_NODE": 190.6853, "ARG_OF_PERICENTER": 78.2143, "MEAN_ANOMALY": 282.5298, "EPHEMERIS_TYPE": 0, "CLASSIFICATION_TYPE": "U", "NORAD_CAT_ID": 32320, "ELEMENT_SET_NO": 999, "REV_AT_EPOCH": 62016, "BSTAR": 0.00080169861, "MEAN_MOTION_DOT": 2.315e-05, "MEAN_MOTION_DDOT": 0}, "tle": {"line1": "1 32320U 99025CXM 25335.80809865  .00002315  00000+0  80170-3 0  9996", "line2": "2 32320 100.3751 190.6853 0055883  78.2143 282.5298 14.36057731620163"}}, "geometry": {"type": "Point", "coordinates": [23.91261685174376, 40.523783951792424]}}, {"type": "Feature", "properties": {"norad_id": 32322, "name": "FENGYUN 1C DEB", "group": "fengyun-1c-debris", "lat": 64.81982163431869, "lon": -155.4963770081437, "alt_km": 915.935669446405, "timestamp": "2025-12-05T07:38:19.131642+00:00", "meta": {"OBJECT_NAME": "FENGYUN 1C DEB", "OBJECT_ID": "1999-025CXP", "EPOCH": "2025-12-04T11:30:45.940032", "MEAN_MOTION": 13.3411511, "ECCENTRICITY": 0.0418673, "INCLINATION": 98.3703, "RA_OF_ASC_NODE": 222.0644, "ARG_OF_PERICENTER": 118.495, "MEAN_ANOMALY": 245.9008, "EPHEMERIS_TYPE": 0, "CLASSIFICATION_TYPE": "U", "NORAD_CAT_ID": 32322, "ELEMENT_SET_NO": 999, "REV_AT_EPOCH": 60269, "BSTAR": 0.0016191, "MEAN_MOTION_DOT": 1.292e-05, "MEAN_MOTION_DDOT": 0}, "tle": {"line1": "1 32322U 99025CXP 25338.47969838  .00001292  00000+0  16191-2 0  9995", "line2": "2 32322  98.3703 222.0644 0418673 118.4950 245.9008 13.34115110602692"}}, "geometry": {"type": "Point", "coordinates": [-155.4963770081437, 64.81982163431869]}}, {"type": "Feature", "properties": {"norad_id": 32323, "name": "FENGYUN 1C DEB", "group": "fengyun-1c-debris", "lat": 44.38199479778597, "lon": 114.52624896611137, "alt_km": 1015.8243821511805, "timestamp": "2025-12-05T07:38:19.131652+00:00", "meta": {"OBJECT_NAME": "FENGYUN 1C DEB", "OBJECT_ID": "1999-025CXQ", "EPOCH": "2025-11-27T08:31:37.777440", "MEAN_MOTION": 13.96310713, "ECCENTRICITY": 0.01563544, "INCLINATION": 98.5696, "RA_OF_ASC_NODE": 115.5941, "ARG_OF_PERICENTER": 252.8199, "MEAN_ANOMALY": 105.5797, "EPHEMERIS_TYPE": 0, "CLASSIFICATION_TYPE": "U", "NORAD_CAT_ID": 32323, "ELEMENT_SET_NO": 999, "REV_AT_EPOCH": 60055, "BSTAR": 0.00293216, "MEAN_MOTION_DOT": 4.437e-05, "MEAN_MOTION_DDOT": 0}, "tle": {"line1": "1 32323U 99025CXQ 25331.35529835  .00004437  00000+0  29322-2 0  9999", "line2": "2 32323  98.5696 115.5941 0156354 252.8199 105.5797 13.96310713600558"}}, "geometry": {"type": "Point", "coordinates": [114.52624896611137, 44.38199479778597]}}, {"type": "Feature", "properties": {"norad_id": 32324, "name": "FENGYUN 1C DEB", "group": "fengyun-1c-debris", "lat": -65.04523079645938, "lon": -120.52584759118469, "alt_km": 903.360234590954, "timestamp": "2025-12-05T07:38:19.131662+00:00", "meta": {"OBJECT_NAME": "FENGYUN 1C DEB", "OBJECT_ID": "1999-025CXR", "EPOCH": "2025-12-01T05:20:15.314208", "MEAN_MOTION": 14.09115713, "ECCENTRICITY": 0.0050455, "INCLINATION": 99.5337, "RA_OF_ASC_NODE": 76.3137, "ARG_OF_PERICENTER": 55.9833, "MEAN_ANOMALY": 304.6112, "EPHEMERIS_TYPE": 0, "CLASSIFICATION_TYPE": "U", "NORAD_CAT_ID": 32324, "ELEMENT_SET_NO": 999, "REV_AT_EPOCH": 63836, "BSTAR": 0.00061368, "MEAN_MOTION_DOT": 1.029e-05, "MEAN_MOTION_DDOT": 0}, "tle": {"line1": "1 32324U 99025CXR 25335.22239947  .00001029  00000+0  61368-3 0  9993", "line2": "2 32324  99.5337  76.3137 0050455  55.9833 304.6112 14.09115713638366"}}, "geometry": {"type": "Point", "coordinates": [-120.52584759118469, -65.04523079645938]}}, {"type": "Feature", "properties": {"norad_id": 32326, "name": "FENGYUN 1C DEB", "group": "fengyun-1c-debris", "lat": 61.71526063238426, "lon": 105.65897245651885, "alt_km": 780.0314112750693, "timestamp": "2025-12-05T07:38:19.131672+00:00", "meta": {"OBJECT_NAME": "FENGYUN 1C DEB", "OBJECT_ID": "1999-025CXT", "EPOCH": "2025-11-30T02:32:37.979232", "MEAN_MOTION": 13.69261307, "ECCENTRICITY": 0.03856265, "INCLINATION": 98.486, "RA_OF_ASC_NODE": 264.9459, "ARG_OF_PERICENTER": 173.0082, "MEAN_ANOMALY": 187.6669, "EPHEMERIS_TYPE": 0, "CLASSIFICATION_TYPE": "U", "NORAD_CAT_ID": 32326, "ELEMENT_SET_NO": 999, "REV_AT_EPOCH": 63009, "BSTAR": 0.00044957354, "MEAN_MOTION_DOT": 6.22e-06, "MEAN_MOTION_DDOT": 0}, "tle": {"line1": "1 32326U 99025CXT 25334.10599513  .00000622  00000+0  44957-3 0  9992", "line2": "2 32326  98.4860 264.9459 0385626 173.0082 187.6669 13.69261307630092"}}, "geometry": {"type": "Point", "coordinates": [105.65897245651885, 61.71526063238426]}}, {"type": "Feature", "properties": {"norad_id": 32331, "name": "FENGYUN 1C DEB", "group": "fengyun-1c-debris", "lat": 4.665740605449968, "lon": -54.81309771546426, "alt_km": 667.1829939983463, "timestamp": "2025-12-05T07:38:19.131682+00:00", "meta": {"OBJECT_NAME": "FENGYUN 1C DEB", "OBJECT_ID": "1999-025CXY", "EPOCH": "2025-11-11T08:35:02.141088", "MEAN_MOTION": 14.68670701, "ECCENTRICITY": 0.0013407, "INCLINATION": 99.1837, "RA_OF_ASC_NODE": 279.0061, "ARG_OF_PERICENTER": 226.0291, "MEAN_ANOMALY": 133.9806, "EPHEMERIS_TYPE": 0, "CLASSIFICATION_TYPE": "U", "NORAD_CAT_ID": 32331, "ELEMENT_SET_NO": 999, "REV_AT_EPOCH": 60157, "BSTAR": 0.0092524, "MEAN_MOTION_DOT": 0.0005428, "MEAN_MOTION_DDOT": 0}, "tle": {"line1": "1 32331U 99025CXY 25315.35766367  .00054280  00000+0  92524-2 0  9998", "line2": "2 32331  99.1837 279.0061 0013407 226.0291 133.9806 14.68670701601572"}}, "geometry": {"type": "Point", "coordinates": [-54.81309771546426, 4.665740605449968]}}, {"type": "Feature", "properties": {"norad_id": 32332, "name": "FENGYUN 1C DEB", "group": "fengyun-1c-debris", "lat": -7.570835535664882, "lon": -147.8207884507373, "alt_km": 1077.2200519300104, "timestamp": "2025-12-05T07:38:19.131692+00:00", "meta": {"OBJECT_NAME": "FENGYUN 1C DEB", "OBJECT_ID": "1999-025CXZ", "EPOCH": "2025-12-04T10:06:09.509760", "MEAN_MOTION": 13.97065068, "ECCENTRICITY": 0.0284962, "INCLINATION": 99.1336, "RA_OF_ASC_NODE": 32.5118, "ARG_OF_PERICENTER": 335.6886, "MEAN_ANOMALY": 23.1049, "EPHEMERIS_TYPE": 0, "CLASSIFICATION_TYPE": "U", "NORAD_CAT_ID": 32332, "ELEMENT_SET_NO": 999, "REV_AT_EPOCH": 92920, "BSTAR": 0.0025333, "MEAN_MOTION_DOT": 4.945e-05, "MEAN_MOTION_DDOT": 0}, "tle": {"line1": "1 32332U 99025CXZ 25338.42094340  .00004945  00000+0  25333-2 0  9994", "line2": "2 32332  99.1336  32.5118 0284962 335.6886  23.1049 13.97065068929202"}}, "geometry": {"type": "Point", "coordinates": [-147.8207884507373, -7.570835535664882]}}, {"type": "Feature", "properties": {"norad_id": 32334, "name": "FENGYUN 1C DEB", "group": "fengyun-1c-debris", "lat": -76.66317709610796, "lon": 170.1741131545601, "alt_km": 859.2394944533407, "timestamp": "2025-12-05T07:38:19.131720+00:00", "meta": {"OBJECT_NAME": "FENGYUN 1C DEB", "OBJECT_ID": "1999-025CYB", "EPOCH": "2025-12-02T03:00:46.825344", "MEAN_MOTION": 14.01624263, "ECCENTRICITY": 0.00664079, "INCLINATION": 99.2542, "RA_OF_ASC_NODE": 30.3872, "ARG_OF_PERICENTER": 310.7393, "MEAN_ANOMALY": 48.8018, "EPHEMERIS_TYPE": 0, "CLASSIFICATION_TYPE": "U", "NORAD_CAT_ID": 32334, "ELEMENT_SET_NO": 999, "REV_AT_EPOCH": 93791, "BSTAR": 0.00038671814, "MEAN_MOTION_DOT": 5.5e-06, "MEAN_MOTION_DDOT": 0}, "tle": {"line1": "1 32334U 99025CYB 25336.12554196  .00000550  00000+0  38672-3 0  9990", "line2": "2 32334  99.2542  30.3872 0066407 310.7393  48.8018 14.01624263937917"}}, "geometry": {"type": "Point", "coordinates": [170.1741131545601, -76.66317709610796]}}, {"type": "Feature", "properties": {"norad_id": 32340, "name": "FENGYUN 1C DEB", "group": "fengyun-1c-debris", "lat": 29.991638600622796, "lon": -20.916221735656176, "alt_km": 638.7777072041672, "timestamp": "2025-12-05T07:38:19.131731+00:00", "meta": {"OBJECT_NAME": "FENGYUN 1C DEB", "OBJECT_ID": "1999-025CYH", "EPOCH": "2025-12-03T11:31:05.163168", "MEAN_MOTION": 14.74095933, "ECCENTRICITY": 0.00348923, "INCLINATION": 98.9809, "RA_OF_ASC_NODE": 342.2859, "ARG_OF_PERICENTER": 323.7129, "MEAN_ANOMALY": 36.171, "EPHEMERIS_TYPE": 0, "CLASSIFICATION_TYPE": "U", "NORAD_CAT_ID": 32340, "ELEMENT_SET_NO": 999, "REV_AT_EPOCH": 97060, "BSTAR": 0.0034692662, "MEAN_MOTION_DOT": 0.00023088, "MEAN_MOTION_DDOT": 0}, "tle": {"line1": "1 32340U 99025CYH 25337.47992087  .00023088  00000+0  34693-2 0  9990", "line2": "2 32340  98.9809 342.2859 0034892 323.7129  36.1710 14.74095933970608"}}, "geometry": {"type": "Point", "coordinates": [-20.916221735656176, 29.991638600622796]}}, {"type": "Feature", "properties": {"norad_id": 32342, "name": "FENGYUN 1C DEB", "group": "fengyun-1c-debris", "lat": -55.4448450893018, "lon": 0.9555106903118136, "alt_km": 852.7248874887364, "timestamp": "2025-12-05T07:38:19.131741+00:00", "meta": {"OBJECT_NAME": "FENGYUN 1C DEB", "OBJECT_ID": "1999-025CYK", "EPOCH": "2025-12-04T06:43:58.281024", "MEAN_MOTION": 14.13393554, "ECCENTRICITY": 0.0007927, "INCLINATION": 98.6706, "RA_OF_ASC_NODE": 347.1488, "ARG_OF_PERICENTER": 15.5607, "MEAN_ANOMALY": 50.8805, "EPHEMERIS_TYPE": 0, "CLASSIFICATION_TYPE": "U", "NORAD_CAT_ID": 32342, "ELEMENT_SET_NO": 999, "REV_AT_EPOCH": 93598, "BSTAR": 0.00018731, "MEAN_MOTION_DOT": 3.09e-06, "MEAN_MOTION_DDOT": 0}, "tle": {"line1": "1 32342U 99025CYK 25338.28053566  .00000309  00000+0  18731-3 0  9999", "line2": "2 32342  98.6706 347.1488 0007927  15.5607  50.8805 14.13393554935984"}}, "geometry": {"type": "Point", "coordinates": [0.9555106903118136, -55.4448450893018]}}]}